[{"OBJECT_NAME":"SKYSAT-C13","OBJECT_ID":"2018-099AW","EPOCH":"2026-03-09T15:57:39.212352","MEAN_MOTION":15.7671015,"ECCENTRICITY":0.00039856,"INCLINATION":96.9402,"RA_OF_ASC_NODE":116.3001,"ARG_OF_PERICENTER":199.1701,"MEAN_ANOMALY":160.9417,"EPHEMERIS_TYPE":0,"CLASSIFICATION_TYPE":"U","NORAD_CAT_ID":43802,"ELEMENT_SET_NO":999,"REV_AT_EPOCH":40716,"BSTAR":0.00055859913,"MEAN_MOTION_DOT":0.00089861,"MEAN_MOTION_DDOT":0},{"OBJECT_NAME":"STARLINK-36903","OBJECT_ID":"2026-039R","EPOCH":"2026-03-09T22:00:01.999584","MEAN_MOTION":15.84736241,"ECCENTRICITY":0.00018204,"INCLINATION":42.9981,"RA_OF_ASC_NODE":53.3924,"ARG_OF_PERICENTER":256.2513,"MEAN_ANOMALY":63.5609,"EPHEMERIS_TYPE":0,"CLASSIFICATION_TYPE":"U","NORAD_CAT_ID":68001,"ELEMENT_SET_NO":999,"REV_AT_EPOCH":291,"BSTAR":-0.0074049886,"MEAN_MOTION_DOT":-0.01559857,"MEAN_MOTION_DDOT":0}]
